{
  "type": "FeatureCollection",
  "features": [
    {
      "type": "Feature",
      "properties": { "code": "BE", "name": "Belgique" },
      "geometry": {
        "type": "Polygon",
        "coordinates": [
          [
            [3.314971, 51.345781],
            [4.047071, 51.267259],
            [4.973991, 51.475024],
            [5.606976, 51.037298],
            [6.156658, 50.803721],
            [6.043073, 50.128052],
            [5.782417, 50.090328],
            [5.674052, 49.529484],
            [4.799222, 49.985373],
            [4.286023, 49.907497],
            [3.588184, 50.378992],
            [3.123252, 50.780363],
            [2.658422, 50.796848],
            [2.513573, 51.148506],
            [3.314971, 51.345781]
          ]
        ]
      }
    },
    {
      "type": "Feature",
      "properties": { "code": "CH", "name": "Suisse" },
      "geometry": {
        "type": "Polygon",
        "coordinates": [
          [
            [9.594226, 47.525058],
            [9.632932, 47.347601],
            [9.47997, 47.10281],
            [9.932448, 46.920728],
            [10.442701, 46.893546],
            [10.363378, 46.483571],
            [9.922837, 46.314899],
            [9.182882, 46.440215],
            [8.966306, 46.036932],
            [8.489952, 46.005151],
            [8.31663, 46.163642],
            [7.755992, 45.82449],
            [7.273851, 45.776948],
            [6.843593, 45.991147],
            [6.5001, 46.429673],
            [6.022609, 46.27299],
            [6.037389, 46.725779],
            [6.768714, 47.287708],
            [6.736571, 47.541801],
            [7.192202, 47.449766],
            [7.466759, 47.620582],
            [8.317301, 47.61358],
            [8.522612, 47.830828],
            [9.594226, 47.525058]
          ]
        ]
      }
    },
    {
      "type": "Feature",
      "properties": { "code": "FR", "name": "France" },
      "geometry": {
        "type": "MultiPolygon",
        "coordinates": [
          [
            [
              [9.560016, 42.152492],
              [9.229752, 41.380007],
              [8.775723, 41.583612],
              [8.544213, 42.256517],
              [8.746009, 42.628122],
              [9.390001, 43.009985],
              [9.560016, 42.152492]
            ]
          ],
          [
            [
              [3.588184, 50.378992],
              [4.286023, 49.907497],
              [4.799222, 49.985373],
              [5.674052, 49.529484],
              [5.897759, 49.442667],
              [6.18632, 49.463803],
              [6.65823, 49.201958],
              [8.099279, 49.017784],
              [7.593676, 48.333019],
              [7.466759, 47.620582],
              [7.192202, 47.449766],
              [6.736571, 47.541801],
              [6.768714, 47.287708],
              [6.037389, 46.725779],
              [6.022609, 46.27299],
              [6.5001, 46.429673],
              [6.843593, 45.991147],
              [6.802355, 45.70858],
              [7.096652, 45.333099],
              [6.749955, 45.028518],
              [7.007562, 44.254767],
              [7.549596, 44.127901],
              [7.435185, 43.693845],
              [6.529245, 43.128892],
              [4.556963, 43.399651],
              [3.100411, 43.075201],
              [2.985999, 42.473015],
              [1.826793, 42.343385],
              [0.701591, 42.795734],
              [0.338047, 42.579546],
              [-1.502771, 43.034014],
              [-1.901351, 43.422802],
              [-1.384225, 44.02261],
              [-1.193798, 46.014918],
              [-2.225724, 47.064363],
              [-2.963276, 47.570327],
              [-4.491555, 47.954954],
              [-4.59235, 48.68416],
              [-3.295814, 48.901692],
              [-1.616511, 48.644421],
              [-1.933494, 49.776342],
              [-0.989469, 49.347376],
              [1.338761, 50.127173],
              [1.639001, 50.946606],
              [2.513573, 51.148506],
              [2.658422, 50.796848],
              [3.123252, 50.780363],
              [3.588184, 50.378992]
            ]
          ]
        ]
      }
    },
    {
      "type": "Feature",
      "properties": { "code": "LU", "name": "Luxembourg" },
      "geometry": {
        "type": "Polygon",
        "coordinates": [
          [
            [6.043073, 50.128052],
            [6.242751, 49.902226],
            [6.18632, 49.463803],
            [5.897759, 49.442667],
            [5.674052, 49.529484],
            [5.782417, 50.090328],
            [6.043073, 50.128052]
          ]
        ]
      }
    }
  ]
}
